{
"type": "FeatureCollection",
"name": "postcards",
"crs": { "type": "name", "properties": { "name": "urn:ogc:def:crs:OGC:1.3:CRS84" } },
"features": [
{ "type": "Feature", "properties": { "name": "Cook Islands", "type": "Atoll", "abbrev": "CK" }, "geometry": { "type": "Polygon", "coordinates": [ [ [ -161.059792110016303, -10.477043853564057 ], [ -161.063734129063448, -10.356266899262192 ], [ -160.932661995744468, -10.356071744733413 ], [ -160.930099683363835, -10.478214318587696 ], [ -161.059792110016303, -10.477043853564057 ] ] ] } },
{ "type": "Feature", "properties": { "name": "Nadi", "type": "Volcanic", "abbrev": "FJ" }, "geometry": { "type": "Polygon", "coordinates": [ [ [ 177.230301963103244, -17.939343611965313 ], [ 177.231364279802506, -17.832339864104242 ], [ 177.285542431466013, -17.832950336561844 ], [ 177.284055188087024, -17.939953712135207 ], [ 177.230301963103244, -17.939343611965313 ] ] ] } },
{ "type": "Feature", "properties": { "name": "Tavua", "type": "Volcanic", "abbrev": "FJ" }, "geometry": { "type": "Polygon", "coordinates": [ [ [ 177.815001074389357, -17.342268460888803 ], [ 177.919320574259103, -17.342268460888803 ], [ 177.925057084435224, -17.43386388526222 ], [ 177.817550634467636, -17.432436250659325 ], [ 177.815001074389357, -17.342268460888803 ] ] ] } },
{ "type": "Feature", "properties": { "name": "Pa", "type": "Volcanic", "abbrev": "FM" }, "geometry": { "type": "Polygon", "coordinates": [ [ [ 158.141230311124417, 6.952011552747072 ], [ 158.141230311124417, 7.018006638357136 ], [ 158.241423549288498, 7.016219085617624 ], [ 158.239187093079494, 6.948435929227395 ], [ 158.141230311124417, 6.952011552747072 ] ] ] } },
{ "type": "Feature", "properties": { "name": "Majuro", "type": "Atoll", "abbrev": "MH" }, "geometry": { "type": "Polygon", "coordinates": [ [ [ 171.032031924433085, 7.039530311727241 ], [ 171.029014822643319, 7.253490547515784 ], [ 171.400118342785504, 7.221209310450496 ], [ 171.393222110123162, 6.994745195585013 ], [ 171.032031924433085, 7.039530311727241 ] ] ] } },
{ "type": "Feature", "properties": { "name": "Madang", "type": "Volcanic", "abbrev": "PG" }, "geometry": { "type": "Polygon", "coordinates": [ [ [ 145.783494512945765, -5.063256550282101 ], [ 145.841079481536809, -5.06489467109229 ], [ 145.839718134761625, -5.125365675960887 ], [ 145.78308610891321, -5.124956185199159 ], [ 145.783494512945765, -5.063256550282101 ] ] ] } },
{ "type": "Feature", "properties": { "name": "Gizo", "type": "Volcanic", "abbrev": "SB" }, "geometry": { "type": "Polygon", "coordinates": [ [ [ 156.711760930888744, -7.992016437686605 ], [ 156.942465426835184, -7.991631866041542 ], [ 156.945165981135574, -8.18809975352942 ], [ 156.712532517831704, -8.17695251827616 ], [ 156.711760930888744, -7.992016437686605 ] ] ] } },
{ "type": "Feature", "properties": { "name": "Nuku-Alofa", "type": "Volcanic", "abbrev": "TO" }, "geometry": { "type": "Polygon", "coordinates": [ [ [ -175.354116307132443, -21.300515169095824 ], [ -175.382281205834119, -20.980131822587712 ], [ -174.963328337647198, -20.981785076415967 ], [ -174.959807725309503, -21.308763188254463 ], [ -175.354116307132443, -21.300515169095824 ] ] ] } },
{ "type": "Feature", "properties": { "name": "Funafuti", "type": "Atoll", "abbrev": "TV" }, "geometry": { "type": "Polygon", "coordinates": [ [ [ 178.968022125418855, -8.693390839932267 ], [ 178.953007752246435, -8.298216864295554 ], [ 179.322736691617735, -8.289804461195146 ], [ 179.330243878203959, -8.731671631220719 ], [ 178.968022125418855, -8.693390839932267 ] ] ] } },
{ "type": "Feature", "properties": { "name": "Efate", "type": "Volcanic", "abbrev": "VU" }, "geometry": { "type": "Polygon", "coordinates": [ [ [ 168.111775330438974, -17.935142486128775 ], [ 168.158647215865727, -17.348549015884888 ], [ 168.677938367567663, -17.333148724120786 ], [ 168.643401188832144, -17.936323172197163 ], [ 168.111775330438974, -17.935142486128775 ] ] ] } },
{ "type": "Feature", "properties": { "name": "Salelavelu", "type": "Volcanic", "abbrev": "WS" }, "geometry": { "type": "Polygon", "coordinates": [ [ [ -172.238397848226157, -13.777452399370034 ], [ -172.234844877319148, -13.671511335519297 ], [ -172.143355876464312, -13.671945618958009 ], [ -172.137582298740426, -13.785265802400538 ], [ -172.238397848226157, -13.777452399370034 ] ] ] } }
]
}
